     3.04           N: GNSS NAV DATA    M: MIXED            RINEX VERSION / TYPE
ssrcrin-15.6.1x                         20250101 203000 UTC PGM / RUN BY / DATE 
    18                                                      LEAP SECONDS        
                                                            END OF HEADER       
E07 2025 01 01 20 20 00-1.613331842236E-04-1.961097950698E-12 0.000000000000E+00
     4.600000000000E+01-1.459687500000E+02 2.581536102769E-09-1.396537747174E-01
    -6.727874279022E-06 1.255116658285E-04 1.143664121628E-05 5.440624380112E+03
     3.324000000000E+05 2.607703208923E-08 3.131398531318E-01 0.000000000000E+00
     9.636367594075E-01 9.596875000000E+01-2.936474411032E-01-5.268076579392E-09
     2.814402945465E-10 2.580000000000E+02 2.347000000000E+03
     3.120000000000E+00 0.000000000000E+00 3.725290298462E-09 0.000000000000E+00
     3.335900000000E+05
S23 2025 01 01 20 40 00 0.000000000000E+00 0.000000000000E+00 3.336100000000E+05
     3.866796400000E+04 0.000000000000E+00 0.000000000000E+00 6.300000000000E+01
     1.681330800000E+04 0.000000000000E+00 0.000000000000E+00 3.276700000000E+04
     0.000000000000E+00 0.000000000000E+00 0.000000000000E+00 6.600000000000E+01
S36 2025 01 01 20 40 00 0.000000000000E+00 0.000000000000E+00 3.336150000000E+05
     4.200368800000E+04 0.000000000000E+00 0.000000000000E+00 6.300000000000E+01
     3.674846960000E+03 0.000000000000E+00 0.000000000000E+00 3.276700000000E+04
     0.000000000000E+00 0.000000000000E+00 0.000000000000E+00 1.280000000000E+02
S44 2025 01 01 20 40 32 8.414499461651E-07 0.000000000000E+00 3.336320000000E+05
     7.319280800000E+03-1.460625000000E-03 1.250000000000E-08 6.300000000000E+01
     4.149225176000E+04 1.162500000000E-04 2.000000000000E-07 3.276700000000E+04
     1.918008000000E+03-1.351600000000E-02-5.062500000000E-06 6.000000000000E+01
S21 2025 01 01 20 40 32 0.000000000000E+00 0.000000000000E+00 3.336430000000E+05
     4.200468400000E+04 0.000000000000E+00 0.000000000000E+00 6.300000000000E+01
    -3.674932960000E+03 0.000000000000E+00 0.000000000000E+00 3.276700000000E+04
     0.000000000000E+00 0.000000000000E+00 0.000000000000E+00 4.700000000000E+01
E26 2025 01 01 20 30 00-1.662469003350E-04 1.092814727599E-11 0.000000000000E+00
     4.700000000000E+01 1.752500000000E+02 2.759400654399E-09 2.408356702455E+00
     8.257105946541E-06 3.926616627723E-04 1.158565282822E-06 5.440607606888E+03
     3.330000000000E+05 3.911554813385E-08-1.776981354086E+00 5.029141902924E-08
     9.930094085420E-01 3.297187500000E+02-1.484518502120E+00-5.682022393325E-09
     2.014369620866E-10 5.170000000000E+02 2.347000000000E+03
     3.120000000000E+00 0.000000000000E+00-6.752088665962E-09-6.752088665962E-09
     3.336650000000E+05
E21 2025 01 01 20 30 00-6.376365199685E-04-2.259525899717E-12 0.000000000000E+00
     4.700000000000E+01-2.281250000000E+01 3.549790720175E-09 1.984818052462E+00
    -1.054257154465E-06 2.545292954892E-04 6.226822733879E-06 5.440605663300E+03
     3.330000000000E+05-8.381903171539E-08 2.413460550068E+00-2.048909664154E-08
     9.642212639374E-01 2.114062500000E+02 1.033449700037E+00-5.605233480473E-09
    -5.043067206849E-10 5.170000000000E+02 2.347000000000E+03
     3.120000000000E+00 0.000000000000E+00 0.000000000000E+00 6.984919309616E-10
     3.336650000000E+05
E31 2025 01 01 20 30 00-4.888762487099E-05-1.463718035666E-12 0.000000000000E+00
     4.700000000000E+01-1.875000000000E+01 3.528361256123E-09 1.268474591938E+00
    -8.419156074524E-07 1.746959751472E-04 6.312504410744E-06 5.440601057053E+03
     3.330000000000E+05 1.117587089539E-08 2.413389428843E+00 4.097819328308E-08
     9.641974125210E-01 2.056562500000E+02 1.902727108107E-01-5.547373927534E-09
    -4.693052627337E-10 5.170000000000E+02 2.347000000000E+03
     3.120000000000E+00 0.000000000000E+00 2.095475792885E-09 3.259629011154E-09
     3.336650000000E+05
E13 2025 01 01 20 30 00-2.862000837922E-05-4.121147867409E-13 0.000000000000E+00
     4.700000000000E+01 1.631562500000E+02 2.531176862248E-09 2.827967222837E+00
     7.614493370056E-06 3.826243337244E-04 1.886859536171E-06 5.440614709854E+03
     3.330000000000E+05-6.146728992462E-08-1.776025291771E+00 3.911554813385E-08
     9.996878226790E-01 3.189687500000E+02-1.108212198698E+00-5.572017811193E-09
     2.207234797332E-10 5.170000000000E+02 2.347000000000E+03
     3.120000000000E+00 0.000000000000E+00 2.561137080193E-09 3.259629011154E-09
     3.336650000000E+05
E03 2025 01 01 20 30 00-1.638118992560E-04-2.501110429876E-12 0.000000000000E+00
     4.700000000000E+01-1.695625000000E+02 2.667968274445E-09 2.758417604537E-01
    -7.912516593933E-06 2.413644688204E-04 1.100823283195E-05 5.440616813660E+03
     3.330000000000E+05-2.793967723846E-08 3.130676361808E-01-6.146728992462E-08
     9.635965072166E-01 1.066875000000E+02 9.288367983066E-01-5.226646282225E-09
     2.182233755938E-10 5.170000000000E+02 2.347000000000E+03
     3.120000000000E+00 0.000000000000E+00 6.984919309616E-10 1.629814505577E-09
     3.336650000000E+05
E07 2025 01 01 20 30 00-1.613330096006E-04-1.961097950698E-12 0.000000000000E+00
     4.700000000000E+01-1.452812500000E+02 2.570464213009E-09-6.592577711324E-02
    -6.703659892082E-06 1.256333198398E-04 1.140683889389E-05 5.440624670029E+03
     3.330000000000E+05 3.166496753693E-08 3.131366742108E-01 7.450580596924E-09
     9.636369729936E-01 9.696875000000E+01-2.929907006044E-01-5.261290582443E-09
     2.800116636097E-10 5.170000000000E+02 2.347000000000E+03
     3.120000000000E+00 0.000000000000E+00 3.725290298462E-09 4.423782229424E-09
     3.336650000000E+05
E15 2025 01 01 20 30 00-1.485280226916E-04-2.231104190287E-12 0.000000000000E+00
     4.700000000000E+01 1.743750000000E+02 2.632609658759E-09-2.587994989225E+00
     7.985159754753E-06 4.383996129036E-04 2.538785338402E-06 5.440606443405E+03
     3.330000000000E+05-4.284083843231E-08-1.776099632879E+00-5.587935447693E-09
     9.996442569786E-01 3.030937500000E+02-1.176745873058E+00-5.570232022522E-09
     1.882221259213E-10 5.170000000000E+02 2.347000000000E+03
     3.120000000000E+00 0.000000000000E+00 3.026798367500E-09 4.190951585770E-09
     3.336650000000E+05
R05 2025 01 01 20 45 00 1.430977135897E-04 9.094947017729E-13 3.336900000000E+05
     2.090666259766E+04 6.836042404175E-01-0.000000000000E+00 0.000000000000E+00
     1.369094580078E+04 2.833042144775E-01 3.725290298462E-09 1.000000000000E+00
    -5.177028808594E+03 3.499121665955E+00 2.793967723846E-09 0.000000000000E+00
S23 2025 01 01 20 42 08 0.000000000000E+00 0.000000000000E+00 3.337330000000E+05
     3.866796400000E+04 0.000000000000E+00 0.000000000000E+00 6.300000000000E+01
     1.681330800000E+04 0.000000000000E+00 0.000000000000E+00 3.276700000000E+04
     0.000000000000E+00 0.000000000000E+00 0.000000000000E+00 6.700000000000E+01
S27 2025 01 01 20 42 40 3.185123205185E-07 1.091393642128E-10 3.337360000000E+05
     2.417538368000E+04 3.743750000000E-03-2.125000000000E-07 3.100000000000E+01
     3.458875624000E+04-3.763125000000E-03-8.750000000000E-08 4.096000000000E+03
     1.961544000000E+02 3.848800000000E-02-1.062500000000E-06 3.300000000000E+01
S28 2025 01 01 20 42 40 4.135072231293E-07-9.094947017729E-12 3.337360000000E+05
     5.138472160000E+03 1.579375000000E-03-1.375000000000E-07 6.300000000000E+01
     4.186365256000E+04-1.291875000000E-03-2.500000000000E-08 3.276700000000E+04
    -2.862800000000E+00-1.604000000000E-03 0.000000000000E+00 3.300000000000E+01
E26 2025 01 01 20 30 00-1.662472495809E-04 1.092814727599E-11 0.000000000000E+00
     4.700000000000E+01 1.752500000000E+02 2.759400654399E-09 2.408356702455E+00
     8.257105946541E-06 3.926616627723E-04 1.158565282822E-06 5.440607606888E+03
     3.330000000000E+05 3.911554813385E-08-1.776981354086E+00 5.029141902924E-08
     9.930094085420E-01 3.297187500000E+02-1.484518502120E+00-5.682022393325E-09
     2.014369620866E-10 2.580000000000E+02 2.347000000000E+03
     3.120000000000E+00 0.000000000000E+00-6.752088665962E-09 0.000000000000E+00
     3.337400000000E+05
E13 2025 01 01 20 30 00-2.862117253244E-05-4.121147867409E-13 0.000000000000E+00
     4.700000000000E+01 1.631562500000E+02 2.531176862248E-09 2.827967222837E+00
     7.614493370056E-06 3.826243337244E-04 1.886859536171E-06 5.440614709854E+03
     3.330000000000E+05-6.146728992462E-08-1.776025291771E+00 3.911554813385E-08
     9.996878226790E-01 3.189687500000E+02-1.108212198698E+00-5.572017811193E-09
     2.207234797332E-10 2.580000000000E+02 2.347000000000E+03
     3.120000000000E+00 0.000000000000E+00 2.561137080193E-09 0.000000000000E+00
     3.337400000000E+05
E21 2025 01 01 20 30 00-6.376375094987E-04-2.245315045002E-12 0.000000000000E+00
     4.700000000000E+01-2.281250000000E+01 3.549790720175E-09 1.984818052462E+00
    -1.054257154465E-06 2.545292954892E-04 6.226822733879E-06 5.440605663300E+03
     3.330000000000E+05-8.381903171539E-08 2.413460550068E+00-2.048909664154E-08
     9.642212639374E-01 2.114062500000E+02 1.033449700037E+00-5.605233480473E-09
    -5.043067206849E-10 2.580000000000E+02 2.347000000000E+03
     3.120000000000E+00 0.000000000000E+00 0.000000000000E+00 0.000000000000E+00
     3.337400000000E+05
E31 2025 01 01 20 30 00-4.888919647783E-05-1.463718035666E-12 0.000000000000E+00
     4.700000000000E+01-1.875000000000E+01 3.528361256123E-09 1.268474591938E+00
    -8.419156074524E-07 1.746959751472E-04 6.312504410744E-06 5.440601057053E+03
     3.330000000000E+05 1.117587089539E-08 2.413389428843E+00 4.097819328308E-08
     9.641974125210E-01 2.056562500000E+02 1.902727108107E-01-5.547373927534E-09
    -4.693052627337E-10 2.580000000000E+02 2.347000000000E+03
     3.120000000000E+00 0.000000000000E+00 2.095475792885E-09 0.000000000000E+00
     3.337400000000E+05
